<?xml version="1.0" encoding="UTF-8"?><?xml-stylesheet type="text/xsl" href="/main-sitemap.xsl"?>
<kml xmlns="http://www.opengis.net/kml/2.2" xmlns:atom="http://www.w3.org/2005/Atom">
	<Document>
		<name>Locations for One Point Electrical and Comms</name>
		<open>1</open>
		<Folder>
			<Placemark>
				<name><![CDATA[One Point Electrical and Comms]]></name>
				<description><![CDATA[One Point Electrical and Comms - One Point Electrical and Comms]]></description>
				<address><![CDATA[]]></address>
				<phoneNumber><![CDATA[]]></phoneNumber>
				<atom:link href=""/>
				<LookAt>
					<altitude>0</altitude>
					<range></range>
					<tilt>0</tilt>
				</LookAt>
				<Point>
				</Point>
			</Placemark>
		</Folder>
	</Document>
</kml>

<!-- XML Sitemap generated by Rank Math SEO Plugin (c) Rank Math - rankmath.com -->